H1 CPF 01  gfz 2021 10 18 12  7912 terrasarx 
H2 0702601  6201 31698    2021 10 18 12 59 42 2021 10 23 00 00 42   120 1 1  0 0 0
H9
10 0 59507  39582.000000  0   -1139149.507    807648.511  -6752226.683
10 0 59507  39702.000000  0   -1335672.232   1682023.361  -6551964.323
10 0 59507  39822.000000  0   -1493979.255   2530364.344  -6237384.015
10 0 59507  39942.000000  0   -1611901.956   3337258.135  -5813904.728
10 0 59507  40062.000000  0   -1688227.623   4087951.139  -5288836.530
10 0 59507  40182.000000  0   -1722708.370   4768619.750  -4671266.016
10 0 59507  40302.000000  0   -1716050.432   5366630.030  -3971910.020
10 0 59507  40422.000000  0   -1669882.727   5870779.584  -3202938.312
10 0 59507  40542.000000  0   -1586704.985   6271516.503  -2377768.983
10 0 59507  40662.000000  0   -1469817.216   6561132.146  -1510838.692
10 0 59507  40782.000000  0   -1323231.042   6733920.631   -617349.705
10 0 59507  40902.000000  0   -1151565.216   6786301.401    286999.030
10 0 59507  41022.000000  0    -959927.089   6716902.339   1186294.718
10 0 59507  41142.000000  0    -753783.564   6526596.712   2064701.869
10 0 59507  41262.000000  0    -538824.569   6218491.768   2906750.653
10 0 59507  41382.000000  0    -320822.917   5797873.759   3697615.709
10 0 59507  41502.000000  0    -105494.772   5272111.700   4423381.850
10 0 59507  41622.000000  0     101636.688   4650519.894   5071295.475
10 0 59507  41742.000000  0     295372.363   3944178.541   5629986.730
10 0 59507  41862.000000  0     470957.577   3165729.370   6089664.549
10 0 59507  41982.000000  0     624189.843   2329140.819   6442284.638
10 0 59507  42102.000000  0     751512.110   1449451.555   6681683.693
10 0 59507  42222.000000  0     850090.025    542496.353   6803681.302
10 0 59507  42342.000000  0     917871.668   -375379.399   6806147.442
10 0 59507  42462.000000  0     953628.875  -1287613.085   6689038.463
10 0 59507  42582.000000  0     956979.419  -2177723.638   6454398.285
10 0 59507  42702.000000  0     928389.739  -3029609.387   6106325.604
10 0 59507  42822.000000  0     869157.675  -3827841.664   5650905.712
10 0 59507  42942.000000  0     781376.310  -4557945.789   5096108.075
10 0 59507  43062.000000  0     667880.338  -5206667.315   4451653.711
10 0 59507  43182.000000  0     532174.795  -5762221.067   3728851.472
10 0 59507  43302.000000  0     378346.913  -6214515.874   2940402.488
10 0 59507  43422.000000  0     210963.478  -6555348.224   2100176.846
10 0 59507  43542.000000  0      34955.693  -6778559.775   1222967.159
10 0 59507  43662.000000  0    -144504.926  -6880157.762    324223.663
10 0 59507  43782.000000  0    -322137.998  -6858391.888   -580227.510
10 0 59507  43902.000000  0    -492687.920  -6713783.654  -1474473.099
10 0 59507  44022.000000  0    -651056.436  -6449109.598  -2342800.749
10 0 59507  44142.000000  0    -792431.273  -6069341.032  -3169981.186
10 0 59507  44262.000000  0    -912407.878  -5581540.818  -3941539.812
10 0 59507  44382.000000  0   -1007100.859  -4994719.219  -4644011.096
10 0 59507  44502.000000  0   -1073242.393  -4319654.471  -5265169.547
10 0 59507  44622.000000  0   -1108265.844  -3568684.019  -5794235.242
10 0 59507  44742.000000  0   -1110372.650  -2755470.715  -6222051.492
10 0 59507  44862.000000  0   -1078581.585  -1894748.790  -6541232.451
10 0 59507  44982.000000  0   -1012759.833  -1002055.415  -6746278.950
10 0 59507  45102.000000  0    -913635.878    -93452.818  -6833663.578
10 0 59507  45222.000000  0    -782793.134    814755.767  -6801884.180
10 0 59507  45342.000000  0    -622644.759   1706310.944  -6651486.261
10 0 59507  45462.000000  0    -436390.903   2565280.614  -6385054.672
10 0 59507  45582.000000  0    -227958.181   3376338.559  -6007175.387
10 0 59507  45702.000000  0      -1921.257   4125035.796  -5524365.573
10 0 59507  45822.000000  0     236591.462   4798057.864  -4944971.263
10 0 59507  45942.000000  0     482006.224   5383466.003  -4279035.070
10 0 59507  46062.000000  0     728425.330   5870917.425  -3538132.361
10 0 59507  46182.000000  0     969759.041   6251858.546  -2735178.080
10 0 59507  46302.000000  0    1199865.279   6519687.531  -1884206.972
10 0 59507  46422.000000  0    1412694.075   6669881.635  -1000129.433
10 0 59507  46542.000000  0    1602433.389   6700084.834    -98467.268
10 0 59507  46662.000000  0    1763652.231   6610151.815    804925.144
10 0 59507  46782.000000  0    1891436.600   6402147.786   1694147.014
10 0 59507  46902.000000  0    1981515.924   6080304.619   2553539.040
10 0 59507  47022.000000  0    2030376.508   5650933.776   3367966.955
10 0 59507  47142.000000  0    2035358.905   5122298.508   4123095.660
10 0 59507  47262.000000  0    1994735.820   4504446.955   4805647.179
10 0 59507  47382.000000  0    1907770.001   3809009.725   5403636.707
10 0 59507  47502.000000  0    1774749.603   3048970.918   5906578.750
10 0 59507  47622.000000  0    1597002.647   2238419.673   6305666.669
10 0 59507  47742.000000  0    1376888.701   1392283.048   6593922.251
10 0 59507  47862.000000  0    1117768.544    526046.574   6766311.035
10 0 59507  47982.000000  0     823952.715   -344529.467   6819823.597
10 0 59507  48102.000000  0     500629.716  -1203695.523   6753526.276
10 0 59507  48222.000000  0     153774.174  -2035998.013   6568576.985
10 0 59507  48342.000000  0    -209963.648  -2826557.258   6268206.190
10 0 59507  48462.000000  0    -583384.360  -3561334.909   5857662.500
10 0 59507  48582.000000  0    -958879.013  -4227383.643   5344124.420
10 0 59507  48702.000000  0   -1328580.897  -4813078.281   4736582.996
10 0 59507  48822.000000  0   -1684528.850  -5308327.032   4045692.497
10 0 59507  48942.000000  0   -2018836.902  -5704755.746   3283587.142
10 0 59507  49062.000000  0   -2323866.660  -5995858.407   2463668.283
10 0 59507  49182.000000  0   -2592398.343  -6177111.129   1600367.068
10 0 59507  49302.000000  0   -2817795.820  -6246048.061    708885.950
10 0 59507  49422.000000  0   -2994161.813  -6202296.369   -195075.937
10 0 59507  49542.000000  0   -3116479.242  -6047569.075  -1095607.663
10 0 59507  49662.000000  0   -3180735.268  -5785615.544  -1976875.558
10 0 59507  49782.000000  0   -3184024.896  -5422130.902  -2823409.602
10 0 59507  49902.000000  0   -3124631.344  -4964626.988  -3620381.118
10 0 59507  50022.000000  0   -3002080.773  -4422268.416  -4353864.765
10 0 59507  50142.000000  0   -2817171.142  -3805679.948  -5011079.473
10 0 59507  50262.000000  0   -2571975.587  -3126730.319  -5580605.333
10 0 59507  50382.000000  0   -2269820.801  -2398297.433  -6052573.529
10 0 59507  50502.000000  0   -1915240.309  -1634020.179  -6418827.371
10 0 59507  50622.000000  0   -1513903.702   -848041.622  -6673051.935
10 0 59507  50742.000000  0   -1072524.980    -54749.147  -6810871.252
10 0 59507  50862.000000  0    -598751.454    731483.624  -6829914.679
10 0 59507  50982.000000  0    -101033.366   1496550.522  -6729853.353
10 0 59507  51102.000000  0     411522.277   2226859.073  -6512405.086
10 0 59507  51222.000000  0     929313.676   2909566.972  -6181310.405
10 0 59507  51342.000000  0    1442420.767   3532805.799  -5742275.190
10 0 59507  51462.000000  0    1940790.857   4085886.992  -5202881.361
10 0 59507  51582.000000  0    2414432.695   4559487.911  -4572467.784
10 0 59507  51702.000000  0    2853615.264   4945815.666  -3861979.588
10 0 59507  51822.000000  0    3249066.836   5238743.574  -3083787.110
10 0 59507  51942.000000  0    3592171.381   5433917.832  -2251477.465
10 0 59507  52062.000000  0    3875157.092   5528830.381  -1379619.878
10 0 59507  52182.000000  0    4091271.627   5522856.361   -483509.759
10 0 59507  52302.000000  0    4234939.686   5417254.121    421104.434
10 0 59507  52422.000000  0    4301898.878   5215126.451   1318305.270
10 0 59507  52542.000000  0    4289308.817   4921344.109   2192293.795
10 0 59507  52662.000000  0    4195833.734   4542436.727   3027676.144
10 0 59507  52782.000000  0    4021692.534   4086447.427   3809744.569
10 0 59507  52902.000000  0    3768676.197   3562758.782   4524740.620
10 0 59507  53022.000000  0    3440135.692   2981895.702   5160099.706
10 0 59507  53142.000000  0    3040935.029   2355308.448   5704674.184
10 0 59507  53262.000000  0    2577374.455   1695140.919   6148923.140
10 0 59507  53382.000000  0    2057087.895   1013991.641   6485074.313
10 0 59507  53502.000000  0    1488913.455    324670.842   6707253.440
10 0 59507  53622.000000  0     882740.672   -360039.496   6811581.066
10 0 59507  53742.000000  0     249337.319  -1027622.277   6796237.450
10 0 59507  53862.000000  0    -399842.277  -1666054.315   6661491.967
10 0 59507  53982.000000  0   -1052864.365  -2264022.681   6409698.014
10 0 59507  54102.000000  0   -1697534.012  -2811125.066   6045252.818
10 0 59507  54222.000000  0   -2321620.175  -3298051.099   5574525.839
10 0 59507  54342.000000  0   -2913088.263  -3716744.390   5005755.726
10 0 59507  54462.000000  0   -3460336.492  -4060540.919   4348912.414
10 0 59507  54582.000000  0   -3952427.541  -4324279.464   3615525.746
10 0 59507  54702.000000  0   -4379310.531  -4504382.931   2818485.311
10 0 59507  54822.000000  0   -4732030.116  -4598909.201   1971814.660
10 0 59507  54942.000000  0   -5002918.061  -4607569.282   1090421.222
10 0 59507  55062.000000  0   -5185761.004  -4531711.051    189827.857
10 0 59507  55182.000000  0   -5275940.623  -4374269.690   -714108.336
10 0 59507  55302.000000  0   -5270542.314  -4139685.808  -1605484.605
10 0 59507  55422.000000  0   -5168428.552  -3833792.276  -2468641.990
10 0 59507  55542.000000  0   -4970275.030  -3463673.497  -3288446.925
10 0 59507  55662.000000  0   -4678570.621  -3037502.411  -4050559.478
10 0 59507  55782.000000  0   -4297582.044  -2564359.225  -4741683.957
10 0 59507  55902.000000  0   -3833283.631  -2054036.192  -5349797.056
10 0 59507  56022.000000  0   -3293255.208  -1516833.699  -5864349.682
99
